STARLINK-36057          
1 66884U 25283G   26032.71690087  .00028645  00000+0  97551-3 0  9997
2 66884  53.1590 191.4629 0001018  52.4039 307.7054 15.30201164 10338
STARLINK-35954          
1 66885U 25283H   26032.72006617  .00021146  00000+0  72386-3 0  9997
2 66885  53.1590 191.4826 0001043  62.2764 297.8342 15.30208931 10338
STARLINK-35900          
1 66886U 25283J   26033.16671461  .00015750  00000+0  54266-3 0  9993
2 66886  53.1604 189.2874 0001174 115.7199 244.3923 15.30206192 10401
STARLINK-35925          
1 66887U 25283K   26033.16354736  .00018939  00000+0  64982-3 0  9995
2 66887  53.1605 189.2676 0001188 127.5863 232.5246 15.30206081 10401
STARLINK-35919          
1 66888U 25283L   26032.70318371  .00038331  00000+0  12984-2 0  9992
2 66888  53.1604 191.3750 0001446  58.1745 301.9397 15.30229854 10336
STARLINK-35852          
1 66889U 25283M   26033.15721874  .00025667  00000+0  87542-3 0  9990
2 66889  53.1607 189.2301 0001427  75.7781 284.3378 15.30210920 10407
STARLINK-35885          
1 66890U 25283N   26032.69684751  .00024400  00000+0  83289-3 0  9990
2 66890  53.1606 191.3325 0001018 100.3914 259.7202 15.30213918 10331
STARLINK-35855          
1 66891U 25283P   26032.82431237  .00023759  00000+0  81155-3 0  9991
2 66891  53.1601 190.7083 0000869  58.2356 301.8729 15.30207716 10359
STARLINK-35883          
1 66892U 25283Q   26033.14771932  .00017841  00000+0  61290-3 0  9990
2 66892  53.1604 189.1705 0001110  84.3933 275.7195 15.30207243 10404
STARLINK-36033          
1 66893U 25283R   26033.25522898  .00044100  00000+0  14891-2 0  9990
2 66893  53.1579 189.1310 0000989 101.9063 258.2049 15.30268785 10414
STARLINK-35718          
1 66894U 25283S   26032.81483345  .00015048  00000+0  51910-3 0  9998
2 66894  53.1590 190.6476 0001292  88.7961 271.3188 15.30203709 10353
STARLINK-35971          
1 66895U 25283T   26032.85280415  .00026365  00000+0  89887-3 0  9994
2 66895  53.1589 190.8862 0000599  68.7488 291.3576 15.30209765 10355
STARLINK-35791          
1 66896U 25283U   26033.13083450  .00021496  00000+0  73554-3 0  9991
2 66896  53.1580 189.0651 0000930  83.3698 276.7409 15.30211082 10401
STARLINK-36079          
1 66897U 25283V   26032.71584454  .00028454  00000+0  96920-3 0  9998
2 66897  53.1595 191.4559 0000939  80.3124 279.7983 15.30198333 10326
STARLINK-36065          
1 66898U 25283W   26032.84436275  .00023954  00000+0  81798-3 0  9997
2 66898  53.1605 190.8336 0001132  69.2722 290.8400 15.30212197 10357
STARLINK-36064          
1 66899U 25283X   26032.71162262  .00015277  00000+0  52678-3 0  9990
2 66899  53.1600 191.4260 0001235  90.7038 269.4104 15.30205644 10339
