[{"OBJECT_NAME":"STARLINK-36057","OBJECT_ID":"2025-283G","EPOCH":"2026-02-01T17:12:20.235168","MEAN_MOTION":15.30201164,"ECCENTRICITY":0.0001018,"INCLINATION":53.159,"RA_OF_ASC_NODE":191.4629,"ARG_OF_PERICENTER":52.4039,"MEAN_ANOMALY":307.7054,"EPHEMERIS_TYPE":0,"CLASSIFICATION_TYPE":"U","NORAD_CAT_ID":66884,"ELEMENT_SET_NO":999,"REV_AT_EPOCH":1033,"BSTAR":0.00097550638,"MEAN_MOTION_DOT":0.00028645,"MEAN_MOTION_DDOT":0},{"OBJECT_NAME":"STARLINK-35954","OBJECT_ID":"2025-283H","EPOCH":"2026-02-01T17:16:53.717088","MEAN_MOTION":15.30208931,"ECCENTRICITY":0.00010434,"INCLINATION":53.159,"RA_OF_ASC_NODE":191.4826,"ARG_OF_PERICENTER":62.2764,"MEAN_ANOMALY":297.8342,"EPHEMERIS_TYPE":0,"CLASSIFICATION_TYPE":"U","NORAD_CAT_ID":66885,"ELEMENT_SET_NO":999,"REV_AT_EPOCH":1033,"BSTAR":0.00072386145,"MEAN_MOTION_DOT":0.00021146,"MEAN_MOTION_DDOT":0},{"OBJECT_NAME":"STARLINK-35900","OBJECT_ID":"2025-283J","EPOCH":"2026-02-02T04:00:04.142304","MEAN_MOTION":15.30206192,"ECCENTRICITY":0.00011743,"INCLINATION":53.1604,"RA_OF_ASC_NODE":189.2874,"ARG_OF_PERICENTER":115.7199,"MEAN_ANOMALY":244.3923,"EPHEMERIS_TYPE":0,"CLASSIFICATION_TYPE":"U","NORAD_CAT_ID":66886,"ELEMENT_SET_NO":999,"REV_AT_EPOCH":1040,"BSTAR":0.00054265578,"MEAN_MOTION_DOT":0.0001575,"MEAN_MOTION_DDOT":0},{"OBJECT_NAME":"STARLINK-35925","OBJECT_ID":"2025-283K","EPOCH":"2026-02-02T03:55:30.491904","MEAN_MOTION":15.30206081,"ECCENTRICITY":0.00011889,"INCLINATION":53.1605,"RA_OF_ASC_NODE":189.2676,"ARG_OF_PERICENTER":127.5863,"MEAN_ANOMALY":232.5246,"EPHEMERIS_TYPE":0,"CLASSIFICATION_TYPE":"U","NORAD_CAT_ID":66887,"ELEMENT_SET_NO":999,"REV_AT_EPOCH":1040,"BSTAR":0.0006498232,"MEAN_MOTION_DOT":0.00018939,"MEAN_MOTION_DDOT":0},{"OBJECT_NAME":"STARLINK-35919","OBJECT_ID":"2025-283L","EPOCH":"2026-02-01T16:52:35.072544","MEAN_MOTION":15.30229854,"ECCENTRICITY":0.00014461,"INCLINATION":53.1604,"RA_OF_ASC_NODE":191.375,"ARG_OF_PERICENTER":58.1745,"MEAN_ANOMALY":301.9397,"EPHEMERIS_TYPE":0,"CLASSIFICATION_TYPE":"U","NORAD_CAT_ID":66888,"ELEMENT_SET_NO":999,"REV_AT_EPOCH":1033,"BSTAR":0.0012984449,"MEAN_MOTION_DOT":0.00038331,"MEAN_MOTION_DDOT":0},{"OBJECT_NAME":"STARLINK-35852","OBJECT_ID":"2025-283M","EPOCH":"2026-02-02T03:46:23.699136","MEAN_MOTION":15.3021092,"ECCENTRICITY":0.00014279,"INCLINATION":53.1607,"RA_OF_ASC_NODE":189.2301,"ARG_OF_PERICENTER":75.7781,"MEAN_ANOMALY":284.3378,"EPHEMERIS_TYPE":0,"CLASSIFICATION_TYPE":"U","NORAD_CAT_ID":66889,"ELEMENT_SET_NO":999,"REV_AT_EPOCH":1040,"BSTAR":0.00087542415,"MEAN_MOTION_DOT":0.00025667,"MEAN_MOTION_DDOT":0},{"OBJECT_NAME":"STARLINK-35885","OBJECT_ID":"2025-283N","EPOCH":"2026-02-01T16:43:27.624864","MEAN_MOTION":15.30213918,"ECCENTRICITY":0.00010185,"INCLINATION":53.1606,"RA_OF_ASC_NODE":191.3325,"ARG_OF_PERICENTER":100.3914,"MEAN_ANOMALY":259.7202,"EPHEMERIS_TYPE":0,"CLASSIFICATION_TYPE":"U","NORAD_CAT_ID":66890,"ELEMENT_SET_NO":999,"REV_AT_EPOCH":1033,"BSTAR":0.00083288524,"MEAN_MOTION_DOT":0.000244,"MEAN_MOTION_DDOT":0},{"OBJECT_NAME":"STARLINK-35855","OBJECT_ID":"2025-283P","EPOCH":"2026-02-01T19:47:00.588768","MEAN_MOTION":15.30207716,"ECCENTRICITY":8.695e-5,"INCLINATION":53.1601,"RA_OF_ASC_NODE":190.7083,"ARG_OF_PERICENTER":58.2356,"MEAN_ANOMALY":301.8729,"EPHEMERIS_TYPE":0,"CLASSIFICATION_TYPE":"U","NORAD_CAT_ID":66891,"ELEMENT_SET_NO":999,"REV_AT_EPOCH":1035,"BSTAR":0.00081154683,"MEAN_MOTION_DOT":0.00023759,"MEAN_MOTION_DDOT":0},{"OBJECT_NAME":"STARLINK-35883","OBJECT_ID":"2025-283Q","EPOCH":"2026-02-02T03:32:42.949248","MEAN_MOTION":15.30207243,"ECCENTRICITY":0.00011107,"INCLINATION":53.1604,"RA_OF_ASC_NODE":189.1705,"ARG_OF_PERICENTER":84.3933,"MEAN_ANOMALY":275.7195,"EPHEMERIS_TYPE":0,"CLASSIFICATION_TYPE":"U","NORAD_CAT_ID":66892,"ELEMENT_SET_NO":999,"REV_AT_EPOCH":1040,"BSTAR":0.00061290387,"MEAN_MOTION_DOT":0.00017841,"MEAN_MOTION_DDOT":0},{"OBJECT_NAME":"STARLINK-36033","OBJECT_ID":"2025-283R","EPOCH":"2026-02-02T06:07:31.783872","MEAN_MOTION":15.30268785,"ECCENTRICITY":9.899e-5,"INCLINATION":53.1579,"RA_OF_ASC_NODE":189.131,"ARG_OF_PERICENTER":101.9063,"MEAN_ANOMALY":258.2049,"EPHEMERIS_TYPE":0,"CLASSIFICATION_TYPE":"U","NORAD_CAT_ID":66893,"ELEMENT_SET_NO":999,"REV_AT_EPOCH":1041,"BSTAR":0.0014891133,"MEAN_MOTION_DOT":0.000441,"MEAN_MOTION_DDOT":0},{"OBJECT_NAME":"STARLINK-35718","OBJECT_ID":"2025-283S","EPOCH":"2026-02-01T19:33:21.610080","MEAN_MOTION":15.30203709,"ECCENTRICITY":0.00012928,"INCLINATION":53.159,"RA_OF_ASC_NODE":190.6476,"ARG_OF_PERICENTER":88.7961,"MEAN_ANOMALY":271.3188,"EPHEMERIS_TYPE":0,"CLASSIFICATION_TYPE":"U","NORAD_CAT_ID":66894,"ELEMENT_SET_NO":999,"REV_AT_EPOCH":1035,"BSTAR":0.00051910325,"MEAN_MOTION_DOT":0.00015048,"MEAN_MOTION_DDOT":0},{"OBJECT_NAME":"STARLINK-35971","OBJECT_ID":"2025-283T","EPOCH":"2026-02-01T20:28:02.278560","MEAN_MOTION":15.30209765,"ECCENTRICITY":5.997e-5,"INCLINATION":53.1589,"RA_OF_ASC_NODE":190.8862,"ARG_OF_PERICENTER":68.7488,"MEAN_ANOMALY":291.3576,"EPHEMERIS_TYPE":0,"CLASSIFICATION_TYPE":"U","NORAD_CAT_ID":66895,"ELEMENT_SET_NO":999,"REV_AT_EPOCH":1035,"BSTAR":0.00089886586,"MEAN_MOTION_DOT":0.00026365,"MEAN_MOTION_DDOT":0},{"OBJECT_NAME":"STARLINK-35791","OBJECT_ID":"2025-283U","EPOCH":"2026-02-02T03:08:24.100800","MEAN_MOTION":15.30211082,"ECCENTRICITY":9.305e-5,"INCLINATION":53.158,"RA_OF_ASC_NODE":189.0651,"ARG_OF_PERICENTER":83.3698,"MEAN_ANOMALY":276.7409,"EPHEMERIS_TYPE":0,"CLASSIFICATION_TYPE":"U","NORAD_CAT_ID":66896,"ELEMENT_SET_NO":999,"REV_AT_EPOCH":1040,"BSTAR":0.00073554318,"MEAN_MOTION_DOT":0.00021496,"MEAN_MOTION_DDOT":0},{"OBJECT_NAME":"STARLINK-36079","OBJECT_ID":"2025-283V","EPOCH":"2026-02-01T17:10:48.968256","MEAN_MOTION":15.30198333,"ECCENTRICITY":9.395e-5,"INCLINATION":53.1595,"RA_OF_ASC_NODE":191.4559,"ARG_OF_PERICENTER":80.3124,"MEAN_ANOMALY":279.7983,"EPHEMERIS_TYPE":0,"CLASSIFICATION_TYPE":"U","NORAD_CAT_ID":66897,"ELEMENT_SET_NO":999,"REV_AT_EPOCH":1032,"BSTAR":0.00096919743,"MEAN_MOTION_DOT":0.00028454,"MEAN_MOTION_DDOT":0},{"OBJECT_NAME":"STARLINK-36065","OBJECT_ID":"2025-283W","EPOCH":"2026-02-01T20:15:52.941600","MEAN_MOTION":15.30212197,"ECCENTRICITY":0.00011325,"INCLINATION":53.1605,"RA_OF_ASC_NODE":190.8336,"ARG_OF_PERICENTER":69.2722,"MEAN_ANOMALY":290.84,"EPHEMERIS_TYPE":0,"CLASSIFICATION_TYPE":"U","NORAD_CAT_ID":66898,"ELEMENT_SET_NO":999,"REV_AT_EPOCH":1035,"BSTAR":0.00081797616,"MEAN_MOTION_DOT":0.00023954,"MEAN_MOTION_DDOT":0},{"OBJECT_NAME":"STARLINK-36064","OBJECT_ID":"2025-283X","EPOCH":"2026-02-01T17:04:44.194368","MEAN_MOTION":15.30205644,"ECCENTRICITY":0.00012356,"INCLINATION":53.16,"RA_OF_ASC_NODE":191.426,"ARG_OF_PERICENTER":90.7038,"MEAN_ANOMALY":269.4104,"EPHEMERIS_TYPE":0,"CLASSIFICATION_TYPE":"U","NORAD_CAT_ID":66899,"ELEMENT_SET_NO":999,"REV_AT_EPOCH":1033,"BSTAR":0.00052678144,"MEAN_MOTION_DOT":0.00015277,"MEAN_MOTION_DDOT":0}]
